0 ARIANE 1 DEB
1 17122U 86019S   13282.52322273  .00006431  00000-0  11283-2 0  3017
2 17122 098.1753 297.3680 0011061 062.2657 097.5194 14.68029448413548
0 ARIANE 1 DEB
1 17122U 86019S   13283.79786155  .00006349  00000-0  11138-2 0  3028
2 17122 098.1755 298.6410 0011002 058.6820 353.4372 14.68037975413727
0 ARIANE 1 DEB
1 17122U 86019S   13285.84357144  .00005185  00000-0  91097-3 0  3040
2 17122 098.1753 300.6842 0010844 052.7691 004.4002 14.68054434414028
0 ARIANE 1 DEB
1 17122U 86019S   13287.14115693  .00004910  00000-0  86295-3 0  3056
2 17122 098.1749 301.9804 0010752 049.1212 021.7140 14.68066865414220
0 ARIANE 1 DEB
1 17122U 86019S   13288.16268785  .00009217  00000-0  16110-2 0  3064
2 17122 098.1745 303.0008 0010674 046.2587 020.2058 14.68079631414374
0 ARIANE 1 DEB
1 17122U 86019S   13289.53566389  .00006864  00000-0  12019-2 0  3077
2 17122 098.1740 304.3721 0010578 042.3110 076.1570 14.68097689414571
0 ARIANE 1 DEB
1 17122U 86019S   13290.68416220  .00007143  00000-0  12500-2 0  3080
2 17122 098.1736 305.5192 0010464 038.7400 026.1139 14.68108864414749
0 ARIANE 1 DEB
1 17122U 86019S   13291.78238193  .00006610  00000-0  11572-2 0  3090
2 17122 098.1735 306.6159 0010374 035.4887 070.2270 14.68119462414906
0 ARIANE 1 DEB
1 17122U 86019S   13292.87019388  .00006105  00000-0  10693-2 0  3108
2 17122 098.1735 307.7022 0010304 032.4850 059.1589 14.68132400415061
0 ARIANE 1 DEB
1 17122U 86019S   13294.15567150  .00006771  00000-0  11845-2 0  3116
2 17122 098.1736 308.9860 0010188 028.2771 013.4449 14.68143062415255
0 ARIANE 1 DEB
1 17122U 86019S   13295.54133731  .00007540  00000-0  13175-2 0  3128
2 17122 098.1739 310.3696 0010058 024.2213 136.8472 14.68159748415451
